[{"OBJECT_NAME":"STARLINK-32043","OBJECT_ID":"2024-120A","EPOCH":"2026-03-09T22:16:12.424512","MEAN_MOTION":15.30202158,"ECCENTRICITY":9.157e-5,"INCLINATION":53.1602,"RA_OF_ASC_NODE":318.7489,"ARG_OF_PERICENTER":111.6716,"MEAN_ANOMALY":248.4383,"EPHEMERIS_TYPE":0,"CLASSIFICATION_TYPE":"U","NORAD_CAT_ID":60135,"ELEMENT_SET_NO":999,"REV_AT_EPOCH":9641,"BSTAR":3.6616173e-5,"MEAN_MOTION_DOT":7.26e-6,"MEAN_MOTION_DDOT":0},{"OBJECT_NAME":"LIZZIESAT-2 (LS-2)","OBJECT_ID":"2024-247G","EPOCH":"2026-03-09T11:47:37.199328","MEAN_MOTION":15.28222796,"ECCENTRICITY":0.00040927,"INCLINATION":44.9909,"RA_OF_ASC_NODE":117.0823,"ARG_OF_PERICENTER":327.5136,"MEAN_ANOMALY":32.5495,"EPHEMERIS_TYPE":0,"CLASSIFICATION_TYPE":"U","NORAD_CAT_ID":62383,"ELEMENT_SET_NO":999,"REV_AT_EPOCH":6771,"BSTAR":0.00034516624,"MEAN_MOTION_DOT":9.388e-5,"MEAN_MOTION_DDOT":0}]
